GSAT0222 (GALILEO 26)   
1 43565U 18060B   22329.41219342 -.00000071  00000+0  00000+0 0  9999
2 43565  57.2254  16.8354 0004444 271.0150  89.0032  1.70475895 27051
GSAT0219 (GALILEO 23)   
1 43566U 18060C   22328.45956678 -.00000069  00000+0  00000+0 0  9990
2 43566  57.2258  16.8632 0004035 268.9766  91.0476  1.70475933 27013
GSAT0220 (GALILEO 24)   
1 43567U 18060D   22329.26638971 -.00000071  00000+0  00000+0 0  9997
2 43567  57.2260  16.8418 0004837 267.8037  92.2103  1.70475547 27008
BEIDOU-3 M13            
1 43622U 18072A   22329.62279766  .00000030  00000+0  00000+0 0  9999
2 43622  55.5790 105.9424 0004326 277.8134 116.0266  1.86231576 28452
BEIDOU-3 M14            
1 43623U 18072B   22329.70959924  .00000030  00000+0  00000+0 0  9990
2 43623  55.5808 105.9319 0002031 325.4750 216.7996  1.86231523 28451
GPS BIII-1              
1 43873U 18109A   22329.70402778  .00000078  00000+0  00000+0 0  9990
2 43873  55.1217 143.5288 0021996 187.3013 164.9944  2.00556208 29005
METEOR-M2 2             
1 44387U 19038A   22330.35406287  .00000020  00000+0  28186-4 0  9992
2 44387  98.7459 290.0030 0001785 129.8219 230.3119 14.23731957176440
GPS BIII-2              
1 44506U 19056A   22330.46470830 -.00000074  00000+0  00000+0 0  9992
2 44506  55.7438  22.6143 0029738 184.8508 257.1429  2.00559127 24012
BEIDOU-3 M23            
1 44542U 19061A   22329.28099749  .00000050  00000+0  00000+0 0  9995
2 44542  54.5417 226.6544 0008949 351.4067   8.6614  1.86231446 21588
BEIDOU-3 M24            
1 44543U 19061B   22329.66649231  .00000047  00000+0  00000+0 0  9991
2 44543  54.5409 226.6105 0005956 339.6104 190.4277  1.86231982 21588
BEIDOU-3 M21            
1 44793U 19078A   22330.47172028 -.00000067  00000+0  10000-3 0  9990
2 44793  54.9079 345.0372 0005589 359.3323 183.3419  1.86232327 20467
BEIDOU-3 M22            
1 44794U 19078B   22330.39375454 -.00000067  00000+0  00000+0 0  9995
2 44794  54.8808 345.0277 0003754 348.1711  54.1781  1.86232851 20469
ELEKTRO-L 3             
1 44903U 19095A   22330.08910322 -.00000083  00000+0  00000+0 0  9999
2 44903   0.0525 101.2082 0001291 105.5980 326.3301  1.00270537 10676
GPS BIII-3              
1 45854U 20041A   22329.60872913 -.00000018  00000+0  00000+0 0  9995
2 45854  55.6497  79.9179 0028920 181.5852 302.0227  2.00567757 17976
GPS BIII-4              
1 46826U 20078A   22330.20025986  .00000003  00000+0  00000+0 0  9996
2 46826  54.4672 263.5301 0024407 190.8572 336.3870  2.00564894 15447
GSAT0223 (GALILEO 27)   
1 49809U 21116A   22329.12408576 -.00000070  00000+0  00000+0 0  9998
2 49809  57.2182  16.7434 0003385 214.9945 147.8091  1.70475831  6029
GSAT0224 (GALILEO 28)   
1 49810U 21116B   22329.58136891 -.00000072  00000+0  00000+0 0  9990
2 49810  57.2188  16.7290 0002669 214.7179 181.2041  1.70475798  6050
